{"type": "FeatureCollection", "features": [ {"type": "Feature", "properties": {"norad_id": 38953, "name": "BEIDOU-2 G6 (C02)", "group": "beidou", "lat": 3.576497578298034, "lon": 140.4340464644406, "alt_km": 35808.81252259525, "timestamp": "2025-12-07T22:37:43.344768+00:00", "meta": {"OBJECT_NAME": "BEIDOU-2 G6 (C02)", "OBJECT_ID": "2012-059A", "EPOCH": "2025-12-07T03:45:41.706144", "MEAN_MOTION": 1.0027022, "ECCENTRICITY": 0.00075945, "INCLINATION": 3.9346, "RA_OF_ASC_NODE": 75.5577, "ARG_OF_PERICENTER": 289.3126, "MEAN_ANOMALY": 211.7788, "EPHEMERIS_TYPE": 0, "CLASSIFICATION_TYPE": "U", "NORAD_CAT_ID": 38953, "ELEMENT_SET_NO": 999, "REV_AT_EPOCH": 4798, "BSTAR": 0, "MEAN_MOTION_DOT": -1.72e-06, "MEAN_MOTION_DDOT": 0}, "tle": {"line1": "1 38953U 12059A   25341.15673271 -.00000172  00000+0  00000+0 0  9991", "line2": "2 38953   3.9346  75.5577 0007594 289.3126 211.7788  1.00270220 47983"}}, "geometry": {"type": "Point", "coordinates": [140.4340464644406, 3.576497578298034]}}, {"type": "Feature", "properties": {"norad_id": 40748, "name": "BEIDOU-3S M2S (C58)", "group": "beidou", "lat": -22.940708739405572, "lon": 145.81804970844837, "alt_km": 21513.665560958092, "timestamp": "2025-12-07T22:37:43.344781+00:00", "meta": {"OBJECT_NAME": "BEIDOU-3S M2S (C58)", "OBJECT_ID": "2015-037A", "EPOCH": "2025-12-04T09:50:19.277376", "MEAN_MOTION": 1.86229056, "ECCENTRICITY": 0.00124004, "INCLINATION": 55.0462, "RA_OF_ASC_NODE": 308.7497, "ARG_OF_PERICENTER": 267.6151, "MEAN_ANOMALY": 92.2259, "EPHEMERIS_TYPE": 0, "CLASSIFICATION_TYPE": "U", "NORAD_CAT_ID": 40748, "ELEMENT_SET_NO": 999, "REV_AT_EPOCH": 7049, "BSTAR": 0, "MEAN_MOTION_DOT": -6.8e-07, "MEAN_MOTION_DDOT": 0}, "tle": {"line1": "1 40748U 15037A   25338.40994534 -.00000068  00000+0  00000+0 0  9991", "line2": "2 40748  55.0462 308.7497 0012400 267.6151  92.2259  1.86229056 70498"}}, "geometry": {"type": "Point", "coordinates": [145.81804970844837, -22.940708739405572]}}, {"type": "Feature", "properties": {"norad_id": 40749, "name": "BEIDOU-3S M1S (C57)", "group": "beidou", "lat": 41.46410268650876, "lon": -13.24849745052959, "alt_km": 21515.83560204017, "timestamp": "2025-12-07T22:37:43.344793+00:00", "meta": {"OBJECT_NAME": "BEIDOU-3S M1S (C57)", "OBJECT_ID": "2015-037B", "EPOCH": "2025-12-01T22:57:46.412352", "MEAN_MOTION": 1.86253762, "ECCENTRICITY": 0.0003321, "INCLINATION": 55.0451, "RA_OF_ASC_NODE": 308.8236, "ARG_OF_PERICENTER": 355.9906, "MEAN_ANOMALY": 3.9975, "EPHEMERIS_TYPE": 0, "CLASSIFICATION_TYPE": "U", "NORAD_CAT_ID": 40749, "ELEMENT_SET_NO": 999, "REV_AT_EPOCH": 7045, "BSTAR": 0, "MEAN_MOTION_DOT": -6e-07, "MEAN_MOTION_DDOT": 0}, "tle": {"line1": "1 40749U 15037B   25335.95678718 -.00000060  00000+0  00000+0 0  9994", "line2": "2 40749  55.0451 308.8236 0003321 355.9906   3.9975  1.86253762 70451"}}, "geometry": {"type": "Point", "coordinates": [-13.24849745052959, 41.46410268650876]}}, {"type": "Feature", "properties": {"norad_id": 40938, "name": "BEIDOU-3S IGSO-2S (C56)", "group": "beidou", "lat": -46.37526398105796, "lon": 144.43851753761382, "alt_km": 35675.165010069795, "timestamp": "2025-12-07T22:37:43.344805+00:00", "meta": {"OBJECT_NAME": "BEIDOU-3S IGSO-2S (C56)", "OBJECT_ID": "2015-053A", "EPOCH": "2025-12-03T17:17:32.013024", "MEAN_MOTION": 1.0027148, "ECCENTRICITY": 0.00611089, "INCLINATION": 49.5266, "RA_OF_ASC_NODE": 261.1136, "ARG_OF_PERICENTER": 188.632, "MEAN_ANOMALY": 338.5579, "EPHEMERIS_TYPE": 0, "CLASSIFICATION_TYPE": "U", "NORAD_CAT_ID": 40938, "ELEMENT_SET_NO": 999, "REV_AT_EPOCH": 3739, "BSTAR": 0, "MEAN_MOTION_DOT": -1.53e-06, "MEAN_MOTION_DDOT": 0}, "tle": {"line1": "1 40938U 15053A   25337.72050941 -.00000153  00000+0  00000+0 0  9994", "line2": "2 40938  49.5266 261.1136 0061108 188.6320 338.5579  1.00271480 37397"}}, "geometry": {"type": "Point", "coordinates": [144.43851753761382, -46.37526398105796]}}, {"type": "Feature", "properties": {"norad_id": 41434, "name": "BEIDOU-2 IGSO-6 (C13)", "group": "beidou", "lat": 55.72373784904008, "lon": 161.99068657850657, "alt_km": 35923.784661863014, "timestamp": "2025-12-07T22:37:43.344818+00:00", "meta": {"OBJECT_NAME": "BEIDOU-2 IGSO-6 (C13)", "OBJECT_ID": "2016-021A", "EPOCH": "2025-12-01T15:57:35.287200", "MEAN_MOTION": 1.00256562, "ECCENTRICITY": 0.00591323, "INCLINATION": 59.9483, "RA_OF_ASC_NODE": 40.0119, "ARG_OF_PERICENTER": 231.2834, "MEAN_ANOMALY": 130.8807, "EPHEMERIS_TYPE": 0, "CLASSIFICATION_TYPE": "U", "NORAD_CAT_ID": 41434, "ELEMENT_SET_NO": 999, "REV_AT_EPOCH": 3550, "BSTAR": 0, "MEAN_MOTION_DOT": -1.55e-06, "MEAN_MOTION_DDOT": 0}, "tle": {"line1": "1 41434U 16021A   25335.66499175 -.00000155  00000+0  00000+0 0  9991", "line2": "2 41434  59.9483  40.0119 0059132 231.2834 130.8807  1.00256562 35501"}}, "geometry": {"type": "Point", "coordinates": [161.99068657850657, 55.72373784904008]}}, {"type": "Feature", "properties": {"norad_id": 41586, "name": "BEIDOU-2 G7 (C03)", "group": "beidou", "lat": 1.7209620181991692, "lon": 166.91620407730187, "alt_km": 35789.0686864614, "timestamp": "2025-12-07T22:37:43.344836+00:00", "meta": {"OBJECT_NAME": "BEIDOU-2 G7 (C03)", "OBJECT_ID": "2016-037A", "EPOCH": "2025-12-07T00:27:47.134656", "MEAN_MOTION": 1.0026987, "ECCENTRICITY": 0.00043922, "INCLINATION": 1.7426, "RA_OF_ASC_NODE": 67.7389, "ARG_OF_PERICENTER": 1.2089, "MEAN_ANOMALY": 124.5302, "EPHEMERIS_TYPE": 0, "CLASSIFICATION_TYPE": "U", "NORAD_CAT_ID": 41586, "ELEMENT_SET_NO": 999, "REV_AT_EPOCH": 496, "BSTAR": 0, "MEAN_MOTION_DOT": -3.49e-06, "MEAN_MOTION_DDOT": 0}, "tle": {"line1": "1 41586U 16037A   25341.01929554 -.00000349  00000+0  00000+0 0  9996", "line2": "2 41586   1.7426  67.7389 0004392   1.2089 124.5302  1.00269870  4963"}}, "geometry": {"type": "Point", "coordinates": [166.91620407730187, 1.7209620181991692]}}, {"type": "Feature", "properties": {"norad_id": 43001, "name": "BEIDOU-3 M1 (C19)", "group": "beidou", "lat": -18.953208510040085, "lon": 56.286884452802575, "alt_km": 21509.796722944066, "timestamp": "2025-12-07T22:37:43.344848+00:00", "meta": {"OBJECT_NAME": "BEIDOU-3 M1 (C19)", "OBJECT_ID": "2017-069A", "EPOCH": "2025-12-06T08:47:12.602112", "MEAN_MOTION": 1.86230764, "ECCENTRICITY": 0.00089894, "INCLINATION": 56.5217, "RA_OF_ASC_NODE": 69.4444, "ARG_OF_PERICENTER": 303.7678, "MEAN_ANOMALY": 56.1608, "EPHEMERIS_TYPE": 0, "CLASSIFICATION_TYPE": "U", "NORAD_CAT_ID": 43001, "ELEMENT_SET_NO": 999, "REV_AT_EPOCH": 5501, "BSTAR": 0, "MEAN_MOTION_DOT": -4.5e-07, "MEAN_MOTION_DDOT": 0}, "tle": {"line1": "1 43001U 17069A   25340.36611808 -.00000045  00000+0  00000+0 0  9996", "line2": "2 43001  56.5217  69.4444 0008989 303.7678  56.1608  1.86230764 55019"}}, "geometry": {"type": "Point", "coordinates": [56.286884452802575, -18.953208510040085]}}, {"type": "Feature", "properties": {"norad_id": 43002, "name": "BEIDOU-3 M2 (C20)", "group": "beidou", "lat": 15.325208581121021, "lon": 79.8706082434716, "alt_km": 21514.379860552577, "timestamp": "2025-12-07T22:37:43.344859+00:00", "meta": {"OBJECT_NAME": "BEIDOU-3 M2 (C20)", "OBJECT_ID": "2017-069B", "EPOCH": "2025-12-06T07:18:26.076672", "MEAN_MOTION": 1.8623066, "ECCENTRICITY": 0.00062871, "INCLINATION": 56.5209, "RA_OF_ASC_NODE": 69.4828, "ARG_OF_PERICENTER": 331.4917, "MEAN_ANOMALY": 28.4877, "EPHEMERIS_TYPE": 0, "CLASSIFICATION_TYPE": "U", "NORAD_CAT_ID": 43002, "ELEMENT_SET_NO": 999, "REV_AT_EPOCH": 5500, "BSTAR": 0, "MEAN_MOTION_DOT": -4.6e-07, "MEAN_MOTION_DDOT": 0}, "tle": {"line1": "1 43002U 17069B   25340.30446848 -.00000046  00000+0  00000+0 0  9992", "line2": "2 43002  56.5209  69.4828 0006287 331.4917  28.4877  1.86230660 55004"}}, "geometry": {"type": "Point", "coordinates": [79.8706082434716, 15.325208581121021]}}, {"type": "Feature", "properties": {"norad_id": 43107, "name": "BEIDOU-3 M7 (C27)", "group": "beidou", "lat": -8.774168910035252, "lon": 135.28115126194135, "alt_km": 21533.117964545625, "timestamp": "2025-12-07T22:37:43.344870+00:00", "meta": {"OBJECT_NAME": "BEIDOU-3 M7 (C27)", "OBJECT_ID": "2018-003A", "EPOCH": "2025-12-05T12:15:18.978048", "MEAN_MOTION": 1.86232243, "ECCENTRICITY": 0.00026626, "INCLINATION": 54.5032, "RA_OF_ASC_NODE": 309.0664, "ARG_OF_PERICENTER": 69.7812, "MEAN_ANOMALY": 290.2304, "EPHEMERIS_TYPE": 0, "CLASSIFICATION_TYPE": "U", "NORAD_CAT_ID": 43107, "ELEMENT_SET_NO": 999, "REV_AT_EPOCH": 5374, "BSTAR": 0, "MEAN_MOTION_DOT": -7.1e-07, "MEAN_MOTION_DDOT": 0}, "tle": {"line1": "1 43107U 18003A   25339.51063632 -.00000071  00000+0  00000+0 0  9992", "line2": "2 43107  54.5032 309.0664 0002662  69.7812 290.2304  1.86232243 53743"}}, "geometry": {"type": "Point", "coordinates": [135.28115126194135, -8.774168910035252]}}, {"type": "Feature", "properties": {"norad_id": 43108, "name": "BEIDOU-3 M8 (C28)", "group": "beidou", "lat": -36.957969536258794, "lon": 161.40935327704437, "alt_km": 21523.508311924626, "timestamp": "2025-12-07T22:37:43.344882+00:00", "meta": {"OBJECT_NAME": "BEIDOU-3 M8 (C28)", "OBJECT_ID": "2018-003B", "EPOCH": "2025-12-05T23:49:06.243168", "MEAN_MOTION": 1.86230755, "ECCENTRICITY": 0.00047661, "INCLINATION": 54.4957, "RA_OF_ASC_NODE": 309.0324, "ARG_OF_PERICENTER": 274.7089, "MEAN_ANOMALY": 85.2198, "EPHEMERIS_TYPE": 0, "CLASSIFICATION_TYPE": "U", "NORAD_CAT_ID": 43108, "ELEMENT_SET_NO": 999, "REV_AT_EPOCH": 5376, "BSTAR": 0, "MEAN_MOTION_DOT": -7.1e-07, "MEAN_MOTION_DDOT": 0}, "tle": {"line1": "1 43108U 18003B   25339.99243337 -.00000071  00000+0  00000+0 0  9997", "line2": "2 43108  54.4957 309.0324 0004766 274.7089  85.2198  1.86230755 53764"}}, "geometry": {"type": "Point", "coordinates": [161.40935327704437, -36.957969536258794]}}]}